INTELSAT 23 (IS-23)     
1 38867U 12057A   26198.18794513 -.00000295  00000+0  00000+0 0  9996
2 38867   0.0179 316.6424 0000706 295.6341  57.3680  1.00263147 50255
BEIDOU-2 G6             
1 38953U 12059A   26198.15322557 -.00000188  00000+0  00000+0 0  9997
2 38953   4.4954  73.1954 0008719 327.0832  33.8532  1.00273361 50210
LUCH-5B                 
1 38977U 12061A   26198.00761620 -.00000151  00000+0  00000+0 0  9998
2 38977  10.5467  49.5821 0003868 147.5239  84.1816  1.00270300 49907
YAMAL 300K              
1 38978U 12061B   26197.80515906  .00000000  00000+0  00000+0 0  9992
2 38978   0.0158  65.0881 0000163 190.5986 151.7571  1.00272636 49925
STAR ONE C3             
1 38991U 12062A   26198.09159012 -.00000259  00000+0  00000+0 0  9999
2 38991   0.0189  44.1627 0002209  79.2581 129.4676  1.00272973 50066
EUTELSAT 21B            
1 38992U 12062B   26198.12963647  .00000121  00000+0  00000+0 0  9998
2 38992   0.0700 338.8649 0003742 146.8945 237.4206  1.00282083 50120
ECHOSTAR 16             
1 39008U 12065A   26198.11313447 -.00000292  00000+0  00000+0 0  9996
2 39008   0.0184  52.3300 0002082  67.4399 154.3878  1.00269011 49940
ZHONGXING-12            
1 39017U 12067A   26198.14263654 -.00000217  00000+0  00000+0 0  9992
2 39017   0.0387  94.6280 0002574  20.5009 318.6779  1.00271179 49803
EUTELSAT 70B            
1 39020U 12069A   26198.06804854 -.00000053  00000+0  00000+0 0  9990
2 39020   0.0612   5.0887 0003617 110.2823 274.5086  1.00271545 49805
YAMAL 402               
1 39022U 12070A   26198.20751359  .00000075  00000+0  00000+0 0  9994
2 39022   1.3400  83.7844 0003641  27.7672 313.0687  1.00272289 49692
SKYNET 5D               
1 39034U 12075A   26198.19419796  .00000089  00000+0  00000+0 0  9991
2 39034   0.0680   2.6432 0003472 122.0414 292.9778  1.00271131 49454
MEXSAT 3                
1 39035U 12075B   26198.10263284  .00000000  00000+0  00000+0 0  9995
2 39035   0.0222  66.5761 0001138  42.4458 108.0673  1.00269028  7357
TDRS 11                 
1 39070U 13004A   26198.14372471  .00000071  00000+0  00000+0 0  9998
2 39070   3.5644  31.7237 0004424  32.4080 108.4850  1.00280112 46996
AMAZONAS 3              
1 39078U 13006A   26198.10568626 -.00000293  00000+0  00000+0 0  9990
2 39078   0.0078 235.3496 0003342 276.6630 119.9598  1.00271692 45210
AZERSPACE 1             
1 39079U 13006B   26198.13448984  .00000123  00000+0  00000+0 0  9999
2 39079   0.0155  50.2553 0001824  99.3838 239.7042  1.00271210 49101
SBIRS GEO-2 (USA 241)   
1 39120U 13011A   26198.18794513 -.00000298  00000+0  00000+0 0  9993
2 39120   4.5522  52.5042 0001997  57.8971 202.4689  1.00271399 48832
EUTELSAT 117 WEST A     
1 39122U 13012A   26198.10219949 -.00000023  00000+0  00000+0 0  9999
2 39122   0.0461 271.9179 0002733 203.7351  99.2571  1.00270543 48739
ANIK G1                 
1 39127U 13014A   26198.10410617 -.00000084  00000+0  00000+0 0  9998
2 39127   0.0442 236.2198 0001752 249.1692  99.7055  1.00271669 48552
ZHONGXING-11            
1 39157U 13020A   26198.09538992 -.00000300  00000+0  00000+0 0  9994
2 39157   0.0536 275.4992 0001907 168.2397 343.3883  1.00268927 48191
EUTELSAT 7B             
1 39163U 13022A   26198.10391889  .00000037  00000+0  00000+0 0  9993
2 39163   0.0686 341.7073 0003280  65.4379 292.1861  1.00269972 48249
WGS F5 (USA 243)        
1 39168U 13024A   26197.54466391  .00000000  00000+0  00000+0 0  9998
2 39168   0.0226  66.5985 0000188 212.3590 159.0053  1.00267560 47468
SES-6                   
1 39172U 13026A   26198.18239295 -.00000271  00000+0  00000+0 0  9998
2 39172   0.0198 348.9667 0002611 107.7867 223.4122  1.00272459 48021
IRNSS-1A                
1 39199U 13034A   26191.72043649  .00000047  00000+0  00000+0 0  9995
2 39199  35.7704  63.5328 0017567 183.4462 356.2994  1.00281941 47601
MUOS-2                  
1 39206U 13036A   26197.87414512 -.00000025  00000+0  00000+0 0  9996
2 39206   5.0526  45.5538 0052831 176.3751 199.4209  1.00272678 47490
ALPHASAT                
1 39215U 13038A   26198.13024315  .00000124  00000+0  00000+0 0  9995
2 39215   3.0001   1.1659 0002223 136.2942 229.2405  1.00270685 44320
INSAT-3D                
1 39216U 13038B   26198.16503226 -.00000350  00000+0  00000+0 0  9994
2 39216   2.0017  82.1600 0000547  74.0068 327.7041  1.00267749 47383
WGS F6 (USA 244)        
1 39222U 13041A   26197.74214514  .00000078  00000+0  00000+0 0  9993
2 39222   0.0184  43.3906 0000253  65.4801 317.6743  1.00271785 46352
ES'HAIL 1               
1 39233U 13044A   26198.13041647  .00000133  00000+0  00000+0 0  9999
2 39233   0.0488 351.3283 0002230 116.0355 260.0394  1.00269043 46925
GSAT-7                  
1 39234U 13044B   26198.06874189 -.00000087  00000+0  00000+0 0  9996
2 39234   0.1559  89.4953 0003148 176.2931 127.7990  1.00271560 45552
AMOS-4                  
1 39237U 13045A   26198.19378132 -.00000002  00000+0  00000+0 0  9998
2 39237   0.0203 248.8546 0002113 196.9858 343.9290  1.00271022 47254
AEHF-3 (USA 246)        
1 39256U 13050A   26197.59652198  .00000016  00000+0  00000+0 0  9999
2 39256   5.3638  66.9127 0088523 187.6931 130.2889  1.00271390 45940
ASTRA 2E                
1 39285U 13056A   26198.13093647  .00000140  00000+0  00000+0 0  9994
2 39285   0.0734 316.0952 0002638 154.4120 260.0465  1.00269906 46719
