OBJECT_NAME,OBJECT_ID,EPOCH,MEAN_MOTION,ECCENTRICITY,INCLINATION,RA_OF_ASC_NODE,ARG_OF_PERICENTER,MEAN_ANOMALY,EPHEMERIS_TYPE,CLASSIFICATION_TYPE,NORAD_CAT_ID,ELEMENT_SET_NO,REV_AT_EPOCH,BSTAR,MEAN_MOTION_DOT,MEAN_MOTION_DDOT
INTELSAT 23 (IS-23),2012-057A,2026-07-17T04:30:38.459232,1.00263147,.0000706,0.0179,316.6424,295.6341,57.3680,0,U,38867,999,5025,0,-.295E-5,0
BEIDOU-2 G6,2012-059A,2026-07-17T03:40:38.689248,1.00273361,.0008719,4.4954,73.1954,327.0832,33.8532,0,U,38953,999,5021,0,-.188E-5,0
LUCH-5B,2012-061A,2026-07-17T00:10:58.039680,1.00270300,.0003868,10.5467,49.5821,147.5239,84.1816,0,U,38977,999,4990,0,-.151E-5,0
YAMAL 300K,2012-061B,2026-07-16T19:19:25.742784,1.00272636,.0000163,0.0158,65.0881,190.5986,151.7571,0,U,38978,999,4992,0,0,0
STAR ONE C3,2012-062A,2026-07-17T02:11:53.386368,1.00272973,.0002209,0.0189,44.1627,79.2581,129.4676,0,U,38991,999,5006,0,-.259E-5,0
EUTELSAT 21B,2012-062B,2026-07-17T03:06:40.591008,1.00282083,.0003742,0.0700,338.8649,146.8945,237.4206,0,U,38992,999,5012,0,.121E-5,0
ECHOSTAR 16,2012-065A,2026-07-17T02:42:54.818208,1.00269011,.0002082,0.0184,52.3300,67.4399,154.3878,0,U,39008,999,4994,0,-.292E-5,0
ZHONGXING-12,2012-067A,2026-07-17T03:25:23.797056,1.00271179,.0002574,0.0387,94.6280,20.5009,318.6779,0,U,39017,999,4980,0,-.217E-5,0
EUTELSAT 70B,2012-069A,2026-07-17T01:37:59.393856,1.00271545,.0003617,0.0612,5.0887,110.2823,274.5086,0,U,39020,999,4980,0,-.53E-6,0
YAMAL 402,2012-070A,2026-07-17T04:58:49.174176,1.00272289,.0003641,1.3400,83.7844,27.7672,313.0687,0,U,39022,999,4969,0,.75E-6,0
SKYNET 5D,2012-075A,2026-07-17T04:39:38.703744,1.00271131,.0003472,0.0680,2.6432,122.0414,292.9778,0,U,39034,999,4945,0,.89E-6,0
MEXSAT 3,2012-075B,2026-07-17T02:27:47.477376,1.00269028,.0001138,0.0222,66.5761,42.4458,108.0673,0,U,39035,999,735,0,0,0
TDRS 11,2013-004A,2026-07-17T03:26:57.814944,1.00280112,.0004424,3.5644,31.7237,32.4080,108.4850,0,U,39070,999,4699,0,.71E-6,0
AMAZONAS 3,2013-006A,2026-07-17T02:32:11.292864,1.00271692,.0003342,0.0078,235.3496,276.6630,119.9598,0,U,39078,999,4521,0,-.293E-5,0
AZERSPACE 1,2013-006B,2026-07-17T03:13:39.922176,1.00271210,.0001824,0.0155,50.2553,99.3838,239.7042,0,U,39079,999,4910,0,.123E-5,0
SBIRS GEO-2 (USA 241),2013-011A,2026-07-17T04:30:38.459232,1.00271399,.0001997,4.5522,52.5042,57.8971,202.4689,0,U,39120,999,4883,0,-.298E-5,0
EUTELSAT 117 WEST A,2013-012A,2026-07-17T02:27:10.035936,1.00270543,.0002733,0.0461,271.9179,203.7351,99.2571,0,U,39122,999,4873,0,-.23E-6,0
ANIK G1,2013-014A,2026-07-17T02:29:54.773088,1.00271669,.0001752,0.0442,236.2198,249.1692,99.7055,0,U,39127,999,4855,0,-.84E-6,0
ZHONGXING-11,2013-020A,2026-07-17T02:17:21.689088,1.00268927,.0001907,0.0536,275.4992,168.2397,343.3883,0,U,39157,999,4819,0,-.3E-5,0
EUTELSAT 7B,2013-022A,2026-07-17T02:29:38.592096,1.00269972,.000328,0.0686,341.7073,65.4379,292.1861,0,U,39163,999,4824,0,.37E-6,0
WGS F5 (USA 243),2013-024A,2026-07-16T13:04:18.961824,1.00267560,.0000188,0.0226,66.5985,212.3590,159.0053,0,U,39168,999,4746,0,0,0
SES-6,2013-026A,2026-07-17T04:22:38.750880,1.00272459,.0002611,0.0198,348.9667,107.7867,223.4122,0,U,39172,999,4802,0,-.271E-5,0
IRNSS-1A,2013-034A,2026-07-10T17:17:25.712736,1.00281941,.0017567,35.7704,63.5328,183.4462,356.2994,0,U,39199,999,4760,0,.47E-6,0
MUOS-2,2013-036A,2026-07-16T20:58:46.138368,1.00272678,.0052831,5.0526,45.5538,176.3751,199.4209,0,U,39206,999,4749,0,-.25E-6,0
ALPHASAT,2013-038A,2026-07-17T03:07:33.008160,1.00270685,.0002223,3.0001,1.1659,136.2942,229.2405,0,U,39215,999,4432,0,.124E-5,0
INSAT-3D,2013-038B,2026-07-17T03:57:38.787264,1.00267749,.0000547,2.0017,82.1600,74.0068,327.7041,0,U,39216,999,4738,0,-.35E-5,0
WGS F6 (USA 244),2013-041A,2026-07-16T17:48:41.340096,1.00271785,.0000253,0.0184,43.3906,65.4801,317.6743,0,U,39222,999,4635,0,.78E-6,0
ES'HAIL 1,2013-044A,2026-07-17T03:07:47.983008,1.00269043,.000223,0.0488,351.3283,116.0355,260.0394,0,U,39233,999,4692,0,.133E-5,0
GSAT-7,2013-044B,2026-07-17T01:38:59.299296,1.00271560,.0003148,0.1559,89.4953,176.2931,127.7990,0,U,39234,999,4555,0,-.87E-6,0
AMOS-4,2013-045A,2026-07-17T04:39:02.706048,1.00271022,.0002113,0.0203,248.8546,196.9858,343.9290,0,U,39237,999,4725,0,-.2E-7,0
AEHF-3 (USA 246),2013-050A,2026-07-16T14:18:59.499072,1.00271390,.0088523,5.3638,66.9127,187.6931,130.2889,0,U,39256,999,4594,0,.16E-6,0
ASTRA 2E,2013-056A,2026-07-17T03:08:32.911008,1.00269906,.0002638,0.0734,316.0952,154.4120,260.0465,0,U,39285,999,4671,0,.14E-5,0
